{
  "type": "FeatureCollection",
  "features": [
    {
      "type": "Feature",
      "properties": {
        "norad_id": 44334,
        "name": "EUTELSAT 7C",
        "group": "eutelsat",
        "lat": -0.052372451569618936,
        "lon": 137.13384612925205,
        "alt_km": 35789.04068129843,
        "timestamp": "2025-12-04T03:47:54.225425+00:00",
        "meta_object_name": "EUTELSAT 7C",
        "meta_object_id": "2019-034B",
        "meta_epoch": "2025-12-03T17:12:48.873312",
        "meta_mean_motion": 1.00269345,
        "meta_eccentricity": 0.0003433,
        "meta_inclination": 0.0761,
        "meta_ra_of_asc_node": 181.0354,
        "meta_arg_of_pericenter": 55.0519,
        "meta_mean_anomaly": 101.9051,
        "meta_ephemeris_type": 0,
        "meta_classification_type": "U",
        "meta_norad_cat_id": 44334,
        "meta_element_set_no": 999,
        "meta_rev_at_epoch": 487,
        "meta_bstar": 0,
        "meta_mean_motion_dot": 6.6e-07,
        "meta_mean_motion_ddot": 0,
        "tle_line1": "1 44334U 19034B   25337.71723233  .00000066  00000+0  00000+0 0  9993",
        "tle_line2": "2 44334   0.0761 181.0354 0003433  55.0519 101.9051  1.00269345  4870"
      },
      "geometry": {
        "type": "Point",
        "coordinates": [
          137.13384612925205,
          -0.052372451569618936
        ]
      }
    },
    {
      "type": "Feature",
      "properties": {
        "norad_id": 44624,
        "name": "EUTELSAT 5 WEST B",
        "group": "eutelsat",
        "lat": 0.03593610213449018,
        "lon": 125.17545026808862,
        "alt_km": 35795.64961008157,
        "timestamp": "2025-12-04T03:47:54.225436+00:00",
        "meta_object_name": "EUTELSAT 5 WEST B",
        "meta_object_id": "2019-067A",
        "meta_epoch": "2025-12-03T17:09:26.693856",
        "meta_mean_motion": 1.00272793,
        "meta_eccentricity": 0.0003711,
        "meta_inclination": 0.0708,
        "meta_ra_of_asc_node": 328.8657,
        "meta_arg_of_pericenter": 285.1903,
        "meta_mean_anomaly": 71.1223,
        "meta_ephemeris_type": 0,
        "meta_classification_type": "U",
        "meta_norad_cat_id": 44624,
        "meta_element_set_no": 999,
        "meta_rev_at_epoch": 2247,
        "meta_bstar": 0,
        "meta_mean_motion_dot": -2.4e-07,
        "meta_mean_motion_ddot": 0,
        "tle_line1": "1 44624U 19067A   25337.71489229 -.00000024  00000+0  00000+0 0  9990",
        "tle_line2": "2 44624   0.0708 328.8657 0003711 285.1903  71.1223  1.00272793 22478"
      },
      "geometry": {
        "type": "Point",
        "coordinates": [
          125.17545026808862,
          0.03593610213449018
        ]
      }
    },
    {
      "type": "Feature",
      "properties": {
        "norad_id": 45027,
        "name": "EUTELSAT KONNECT",
        "group": "eutelsat",
        "lat": 0.04670309489948081,
        "lon": 137.36106443385663,
        "alt_km": 35793.31672017839,
        "timestamp": "2025-12-04T03:47:54.225460+00:00",
        "meta_object_name": "EUTELSAT KONNECT",
        "meta_object_id": "2020-005B",
        "meta_epoch": "2025-12-03T17:12:48.873312",
        "meta_mean_motion": 1.0026857,
        "meta_eccentricity": 0.0001782,
        "meta_inclination": 0.069,
        "meta_ra_of_asc_node": 99.0949,
        "meta_arg_of_pericenter": 186.3807,
        "meta_mean_anomaly": 52.717,
        "meta_ephemeris_type": 0,
        "meta_classification_type": "U",
        "meta_norad_cat_id": 45027,
        "meta_element_set_no": 999,
        "meta_rev_at_epoch": 2236,
        "meta_bstar": 0,
        "meta_mean_motion_dot": 6.7e-07,
        "meta_mean_motion_ddot": 0,
        "tle_line1": "1 45027U 20005B   25337.71723233  .00000067  00000+0  00000+0 0  9994",
        "tle_line2": "2 45027   0.0690  99.0949 0001782 186.3807  52.7170  1.00268570 22360"
      },
      "geometry": {
        "type": "Point",
        "coordinates": [
          137.36106443385663,
          0.04670309489948081
        ]
      }
    },
    {
      "type": "Feature",
      "properties": {
        "norad_id": 49056,
        "name": "EUTELSAT QUANTUM",
        "group": "eutelsat",
        "lat": -0.002820085950177664,
        "lon": 177.85709399115137,
        "alt_km": 35785.5414948874,
        "timestamp": "2025-12-04T03:47:54.225474+00:00",
        "meta_object_name": "EUTELSAT QUANTUM",
        "meta_object_id": "2021-069B",
        "meta_epoch": "2025-12-03T17:24:25.259040",
        "meta_mean_motion": 1.00271867,
        "meta_eccentricity": 0.0003792,
        "meta_inclination": 0.0191,
        "meta_ra_of_asc_node": 18.2119,
        "meta_arg_of_pericenter": 248.1481,
        "meta_mean_anomaly": 115.2657,
        "meta_ephemeris_type": 0,
        "meta_classification_type": "U",
        "meta_norad_cat_id": 49056,
        "meta_element_set_no": 999,
        "meta_rev_at_epoch": 1596,
        "meta_bstar": 0,
        "meta_mean_motion_dot": 1.43e-06,
        "meta_mean_motion_ddot": 0,
        "tle_line1": "1 49056U 21069B   25337.72529235  .00000143  00000+0  00000+0 0  9993",
        "tle_line2": "2 49056   0.0191  18.2119 0003792 248.1481 115.2657  1.00271867 15968"
      },
      "geometry": {
        "type": "Point",
        "coordinates": [
          177.85709399115137,
          -0.002820085950177664
        ]
      }
    },
    {
      "type": "Feature",
      "properties": {
        "norad_id": 53765,
        "name": "EUTELSAT KONNECT VHTS",
        "group": "eutelsat",
        "lat": 0.036510570606198084,
        "lon": 132.84123904810463,
        "alt_km": 35788.356358425364,
        "timestamp": "2025-12-04T03:47:54.225486+00:00",
        "meta_object_name": "EUTELSAT KONNECT VHTS",
        "meta_object_id": "2022-110A",
        "meta_epoch": "2025-12-03T05:12:28.480320",
        "meta_mean_motion": 1.00269007,
        "meta_eccentricity": 0.0002764,
        "meta_inclination": 0.0603,
        "meta_ra_of_asc_node": 107.1016,
        "meta_arg_of_pericenter": 123.1613,
        "meta_mean_anomaly": 282.8564,
        "meta_ephemeris_type": 0,
        "meta_classification_type": "U",
        "meta_norad_cat_id": 53765,
        "meta_element_set_no": 999,
        "meta_rev_at_epoch": 486,
        "meta_bstar": 0,
        "meta_mean_motion_dot": 3.6e-07,
        "meta_mean_motion_ddot": 0,
        "tle_line1": "1 53765U 22110A   25337.21699630  .00000036  00000+0  00000+0 0  9995",
        "tle_line2": "2 53765   0.0603 107.1016 0002764 123.1613 282.8564  1.00269007  4867"
      },
      "geometry": {
        "type": "Point",
        "coordinates": [
          132.84123904810463,
          0.036510570606198084
        ]
      }
    },
    {
      "type": "Feature",
      "properties": {
        "norad_id": 54048,
        "name": "EUTELSAT HOTBIRD 13F",
        "group": "eutelsat",
        "lat": -0.032390797860066725,
        "lon": 143.2070390471956,
        "alt_km": 35792.88306791731,
        "timestamp": "2025-12-04T03:47:54.225498+00:00",
        "meta_object_name": "EUTELSAT HOTBIRD 13F",
        "meta_object_id": "2022-134A",
        "meta_epoch": "2025-12-02T19:57:38.448864",
        "meta_mean_motion": 1.00271371,
        "meta_eccentricity": 0.00019176,
        "meta_inclination": 0.0542,
        "meta_ra_of_asc_node": 289.0481,
        "meta_arg_of_pericenter": 66.1354,
        "meta_mean_anomaly": 29.1621,
        "meta_ephemeris_type": 0,
        "meta_classification_type": "U",
        "meta_norad_cat_id": 54048,
        "meta_element_set_no": 999,
        "meta_rev_at_epoch": 1140,
        "meta_bstar": 0,
        "meta_mean_motion_dot": 1.07e-06,
        "meta_mean_motion_ddot": 0,
        "tle_line1": "1 54048U 22134A   25336.83169501  .00000107  00000+0  00000+0 0  9991",
        "tle_line2": "2 54048   0.0542 289.0481 0001917  66.1354  29.1621  1.00271371 11408"
      },
      "geometry": {
        "type": "Point",
        "coordinates": [
          143.2070390471956,
          -0.032390797860066725
        ]
      }
    },
    {
      "type": "Feature",
      "properties": {
        "norad_id": 54225,
        "name": "EUTELSAT HOTBIRD 13G",
        "group": "eutelsat",
        "lat": -0.0413114396808447,
        "lon": 143.1726616123858,
        "alt_km": 35779.565464727064,
        "timestamp": "2025-12-04T03:47:54.225510+00:00",
        "meta_object_name": "EUTELSAT HOTBIRD 13G",
        "meta_object_id": "2022-146A",
        "meta_epoch": "2025-12-03T00:07:14.496096",
        "meta_mean_motion": 1.00271219,
        "meta_eccentricity": 0.00021047,
        "meta_inclination": 0.0475,
        "meta_ra_of_asc_node": 238.4149,
        "meta_arg_of_pericenter": 306.4933,
        "meta_mean_anomaly": 262.0024,
        "meta_ephemeris_type": 0,
        "meta_classification_type": "U",
        "meta_norad_cat_id": 54225,
        "meta_element_set_no": 999,
        "meta_rev_at_epoch": 549,
        "meta_bstar": 0,
        "meta_mean_motion_dot": 1.07e-06,
        "meta_mean_motion_ddot": 0,
        "tle_line1": "1 54225U 22146A   25337.00502889  .00000107  00000+0  00000+0 0  9991",
        "tle_line2": "2 54225   0.0475 238.4149 0002104 306.4933 262.0024  1.00271219  5499"
      },
      "geometry": {
        "type": "Point",
        "coordinates": [
          143.1726616123858,
          -0.0413114396808447
        ]
      }
    }
  ]
}